EUTELSAT 8 WEST B       
1 40875U 15039B   25342.56510398 -.00000063  00000+0  00000+0 0  9993
2 40875   0.0644 358.7291 0004139 260.1205  14.1718  1.00271440 37740
EUTELSAT 9B             
1 41310U 16005A   25342.35458931  .00000064  00000+0  00000+0 0  9993
2 41310   0.0340  49.2620 0004908 215.4191 309.3435  1.00272374 36209
EUTELSAT 65 WEST A      
1 41382U 16014A   25342.52873729 -.00000274  00000+0  00000+0 0  9991
2 41382   0.0497   1.9264 0002616 260.5786 300.1610  1.00271818 35626
EUTELSAT 117 WEST B     
1 41589U 16038B   25342.55232005 -.00000009  00000+0  00000+0 0  9991
2 41589   0.0079 142.3088 0000359 313.5453  63.5421  1.00270251 34750
EUTELSAT 172B           
1 42741U 17029B   25342.61016972 -.00000004  00000+0  00000+0 0  9998
2 42741   0.0118  90.8778 0000230 217.0034 161.4014  1.00269577 31829
EUTELSAT 7C             
1 44334U 19034B   25342.56805066  .00000050  00000+0  00000+0 0  9990
2 44334   0.0737 179.6012 0003493  58.7605  50.6900  1.00270644  4922
EUTELSAT 5 WEST B       
1 44624U 19067A   25342.35181595 -.00000040  00000+0  00000+0 0  9999
2 44624   0.0651 339.6296 0003548 278.5186 300.8663  1.00270867 22527
EUTELSAT KONNECT        
1 45027U 20005B   25342.56813734  .00000052  00000+0  00000+0 0  9993
2 45027   0.0713  98.0190 0001655 164.3059  26.9727  1.00271680 22421
